SatCatId,ObjectName,LaunchYear,OrbitalPeriod,LaunchMass,StatusCode,Inclination,Status,UcsData,OrbitClassEstimated,LaunchSiteCountry,Owner,UseType,Purpose,LaunchVehicleClass,TLE1,TLE2,MeanMotion,Eccentricity,OrbitClass
39253,HISAKI (SPRINT-A),2013,106.25,348.0,+,29.72,Active,1,LEO,Japan,Japan,Government,Space Science,Epsilon,1 39253U 13049A   23074.53111906  .00000181  00000+0  15986-3 0  9992,2 39253  29.7182 147.1617 0137183  93.7411 267.8857 13.55315483470943,13.55315483,0.0137183,LEO
39256,AEHF-3 (USA 246),2013,1436.1,6169.0,+,2.34,Active,1,GSO,USA,USA,Military,Communications,Atlas,1 39256U 13050A   23074.20452760  .00000132  00000+0  00000+0 0  9990,2 39256   2.3444  73.7542 0054899 189.9228 187.3891  1.00271844 34759,1.00271844,0.0054899,GSO
39260,FENGYUN 3C,2013,101.69,2300.0,+,98.44,Active,1,LEO,PRC,China,Government,Earth Observation,Long March,1 39260U 13052A   23074.47693566  .00000293  00000+0  16931-3 0  9999,2 39260  98.4359  93.5671 0010588 208.5340 151.5258 14.16006014490277,14.16006014,0.0010588,LEO
39265,CASSIOPE,2013,99.46,490.0,+,80.96,Active,1,LEO,USA,Canada,Government,Earth Observation,Falcon,1 39265U 13055A   23073.86859639  .00021906  00000+0  55340-3 0  9995,2 39265  80.9646 338.9747 0584892 232.2401 122.4434 14.47827864491310,14.47827864,0.0584892,LEO
39266,CUSAT 1,2013,98.68,-1.0,-,80.97,Inactive,0,LEO,USA,USA,Unknown,Unknown,Unknown,1 39266U 13055B   23074.50253464  .00036767  00000+0  83947-3 0  9997,2 39266  80.9750 308.7610 0540309 128.0905 237.0318 14.59297568493576,14.59297568,0.0540309,LEO
39267,DANDE,2013,100.3,-1.0,-,81.01,Inactive,0,LEO,USA,USA,Unknown,Unknown,Unknown,1 39267U 13055C   23074.57137397  .00024208  00000+0  65435-3 0  9990,2 39267  81.0085  24.8932 0635821 311.4441  43.3751 14.35690777486990,14.35690777,0.0635821,LEO
39268,POPACS 1,2013,98.51,-1.0,+,80.99,Active,0,LEO,USA,USA,Unknown,Unknown,Unknown,1 39268U 13055D   23074.06642165  .00036451  00000+0  84012-3 0  9994,2 39268  80.9933 306.1814 0526604  97.0099 269.1269 14.61936118494138,14.61936118,0.0526604,LEO
39269,POPACS 2,2013,99.98,-1.0,+,81.01,Active,0,LEO,USA,USA,Unknown,Unknown,Unknown,1 39269U 13055E   23074.25127449  .00018618  00000+0  49304-3 0  9999,2 39269  81.0139  11.8290 0616132 267.4362  85.6198 14.40271364490263,14.40271364,0.0616132,LEO
39270,POPACS 3,2013,100.96,-1.0,+,81.01,Active,0,LEO,USA,USA,Unknown,Unknown,Unknown,1 39270U 13055F   23073.34260594  .00020609  00000+0  60634-3 0  9991,2 39270  81.0120  50.9720 0671675  18.0148 344.3627 14.26284385467034,14.26284385,0.0671675,LEO
39271,CUSAT 2 & FALCON 9 R/B,2013,97.45,-1.0,-,80.95,Inactive,0,LEO,USA,USA,Unknown,Unknown,Unknown,1 39271U 13055G   23074.50573150  .00050175  00000+0  95788-3 0  9995,2 39271  80.9503 253.7581 0469581 355.6051   4.1089 14.77818444496579,14.77818444,0.0469581,LEO
39285,ASTRA 2E,2013,1436.08,6052.0,+,0.07,Active,1,GSO,Kazakhstan,SES,Commercial,Communications,Proton,1 39285U 13056A   23073.87642899  .00000150  00000+0  00000+0 0  9994,2 39285   0.0674 336.2900 0002284  15.2425 164.6577  1.00273258 34500,1.00273258,0.0002284,GEO
39358,SHIJIAN-16 (SJ-16),2013,96.85,-1.0,+,74.97,Active,1,LEO,PRC,China,Government,Technology Development,Long March,1 39358U 13057A   23074.48247515  .00002224  00000+0  25162-3 0  9994,2 39358  74.9728  79.9026 0020087 230.0117 129.9304 14.86811197509267,14.86811197,0.0020087,LEO
39360,FM-6,2013,1436.13,6020.0,+,0.03,Active,1,GSO,Kazakhstan,USA,Commercial,Communications,Proton,1 39360U 13058A   23074.59298980 -.00000020  00000+0  00000+0 0  9995,2 39360   0.0290 138.6064 0000669 101.9773  29.6419  1.00269807 34417,1.00269807,6.69e-05,GEO
39375,RADUGA-1M 3,2013,1436.05,2400.0,+,2.92,Active,1,GSO,Kazakhstan,Russia/USSR,Military,Communications,Proton,1 39375U 13062A   23073.16924596  .00000157  00000+0  00000+0 0  9997,2 39375   2.9182  86.8383 0000730 200.3300 340.2609  1.00275028 34180,1.00275028,7.3e-05,GSO
39410,YAOGAN 19,2013,109.46,-1.0,+,100.05,Active,1,LEO,PRC,China,Military,Earth Observation,Long March,1 39410U 13065A   23074.56871819 -.00000004  00000+0  10000-3 0  9991,2 39410 100.0529  93.7842 0008955 313.4925  46.5441 13.15507400447266,13.155074,0.0008955,LEO
39416,APRIZESAT 7,2013,96.96,12.0,+,97.61,Active,1,LEO,Russia,USA,Commercial,Communications,Dnepr,1 39416U 13066A   23074.20759659  .00003062  00000+0  35800-3 0  9997,2 39416  97.6091  46.4243 0039971 183.4323 176.6624 14.85225955504246,14.85225955,0.0039971,LEO
39417,ZACUBE-1 (TSHEPISOSAT),2013,97.03,2.0,+,97.67,Active,1,LEO,Russia,South Africa,Civil,Educational/Technology Development,Dnepr,1 39417U 13066B   23074.14122157  .00006309  00000+0  74254-3 0  9991,2 39417  97.6748  39.2209 0054067 235.6375 123.9719 14.84109105503244,14.84109105,0.0054067,LEO
39418,SKYSAT-A,2013,95.92,-1.0,+,97.54,Active,1,LEO,Russia,USA,Commercial,Earth Observation,Dnepr,1 39418U 13066C   23074.21149505  .00006068  00000+0  47029-3 0  9998,2 39418  97.5380 142.8525 0032991  66.6859 293.7832 15.01328763509251,15.01328763,0.0032991,LEO
39419,DUBAISAT-2,2013,96.24,300.0,+,97.42,Active,1,LEO,Russia,UAE,Government,Earth Observation,Dnepr,1 39419U 13066D   23074.49902113  .00006654  00000+0  59211-3 0  9998,2 39419  97.4231  97.5999 0015060  86.9224 273.3710 14.96289813507708,14.96289813,0.001506,LEO
39420,OPTOS,2013,98.34,3.0,+,97.82,Active,1,LEO,Russia,Spain,Government,Technology Development,Dnepr,1 39420U 13066E   23074.29098782  .00003580  00000+0  60559-3 0  9998,2 39420  97.8179 343.7553 0132116 217.7434 141.4448 14.64319039496884,14.64319039,0.0132116,LEO
39421,UNISAT-5,2013,96.63,-1.0,-,97.53,Inactive,0,LEO,Russia,Italy,Unknown,Unknown,Unknown,1 39421U 13066F   23074.48727099  .00006582  00000+0  67776-3 0  9993,2 39421  97.5301  59.8188 0031223 120.8246 239.6052 14.90221394504640,14.90221394,0.0031223,LEO
39422,STSAT-3,2013,96.54,-1.0,+,97.48,Active,0,LEO,Russia,South Korea,Unknown,Unknown,Unknown,1 39422U 13066G   23074.49714806  .00006096  00000+0  60826-3 0  9996,2 39422  97.4831  70.3403 0023778  96.3572 264.0312 14.91667498506228,14.91667498,0.0023778,LEO
39423,WNISAT-1,2013,99.04,10.0,+,97.72,Active,1,LEO,Russia,Japan,Commercial,Earth Observation,Dnepr,1 39423U 13066H   23074.42766656  .00002051  00000+0  40762-3 0  9994,2 39423  97.7154 300.4138 0173858  10.9495 349.5409 14.53960055493812,14.53960055,0.0173858,LEO
39424,CINEMA-2 (KHUSAT-2),2013,97.66,-1.0,-,97.8,Inactive,0,LEO,Russia,USA,Unknown,Unknown,Unknown,1 39424U 13066J   23074.32299370  .00006272  00000+0  88984-3 0  9995,2 39424  97.8008  17.0028 0090503  34.1059 326.5920 14.74506724500151,14.74506724,0.0090503,LEO
39425,APRIZESAT 8,2013,97.15,12.0,+,97.67,Active,1,LEO,Russia,USA,Commercial,Communications/Maritime Tracking,Dnepr,1 39425U 13066K   23074.49473816  .00002614  00000+0  32685-3 0  9996,2 39425  97.6665  38.7581 0049394 231.6725 128.0044 14.82299162503372,14.82299162,0.0049394,LEO
39426,CINEMA-3 (KHUSAT-2),2013,97.89,-1.0,-,97.82,Inactive,0,LEO,Russia,USA,Unknown,Unknown,Unknown,1 39426U 13066L   23074.44756338  .00003941  00000+0  59805-3 0  9992,2 39426  97.8225   8.0725 0103384  87.5405 273.7633 14.71037323499092,14.71037323,0.0103384,LEO
39427,TRITON-1,2013,97.94,-1.0,+,97.83,Active,0,LEO,Russia,UK,Unknown,Unknown,Unknown,1 39427U 13066M   23074.41791478  .00005067  00000+0  77092-3 0  9993,2 39427  97.8317   3.8827 0110873 117.5855 243.6665 14.70277875498766,14.70277875,0.0110873,LEO
39428,DELFI-N3XT,2013,97.87,-1.0,P,97.83,Active,0,LEO,Russia,Netherlands,Unknown,Unknown,Unknown,1 39428U 13066N   23073.76350101  .00007706  00000+0  11311-2 0  9998,2 39428  97.8303   2.0428 0114189 131.8460 229.2565 14.71381970498240,14.7138197,0.0114189,LEO
39429,DOVE 3,2013,98.37,-1.0,-,97.8,Inactive,0,LEO,Russia,USA,Unknown,Unknown,Unknown,1 39429U 13066P   23074.25642356  .00007270  00000+0  12173-2 0  9993,2 39429  97.8054 338.4783 0138378 243.3532 115.3435 14.63894687496388,14.63894687,0.0138378,LEO
39430,GOMX-1,2013,98.54,5.0,+,97.79,Active,1,LEO,Russia,Denmark,Commercial,Technology Development,Dnepr,1 39430U 13066Q   23074.53473252  .00005294  00000+0  93086-3 0  9990,2 39430  97.7893 331.1088 0145268 269.5759  88.8752 14.61329408495865,14.61329408,0.0145268,LEO
39431,BRITE-PL1 (LEM),2013,99.46,-1.0,-,97.68,Inactive,0,LEO,Russia,Poland,Unknown,Unknown,Unknown,1 39431U 13066R   23074.48460575  .00001835  00000+0  39324-3 0  9991,2 39431  97.6812 268.8015 0201654 108.3438 253.9805 14.47788681491572,14.47788681,0.0201654,LEO
39432,ICUBE-1,2013,96.37,-1.0,-,97.48,Inactive,0,LEO,Russia,Pakistan,Unknown,Unknown,Unknown,1 39432U 13066S   23074.51831487  .00011813  00000+0  10941-2 0  9990,2 39432  97.4814  69.6821 0031761  78.2259 282.2522 14.94252456505149,14.94252456,0.0031761,LEO
39433,HUMSAT-D,2013,96.16,-1.0,-,97.45,Inactive,0,LEO,Russia,Spain,Unknown,Unknown,Unknown,1 39433U 13066T   23074.47177894  .00015661  00000+0  13349-2 0  9991,2 39433  97.4527  77.5159 0029068  50.8774 309.5026 14.97494723505722,14.97494723,0.0029068,LEO
39434,DOVE 4,2013,93.76,-1.0,-,97.43,Inactive,0,LEO,Russia,USA,Unknown,Unknown,Unknown,1 39434U 13066U   23074.18877419  .00146373  00000+0  40346-2 0  9992,2 39434  97.4289 144.0338 0018029 193.8645 166.2106 15.36380495492240,15.36380495,0.0018029,LEO
39438,VELOX-PII,2013,97.28,-1.0,-,97.73,Inactive,0,LEO,Russia,Singapore,Unknown,Unknown,Unknown,1 39438U 13066Y   23074.38572095  .00006283  00000+0  80055-3 0  9997,2 39438  97.7313  31.0753 0065859 294.9185  64.5193 14.80337474501060,14.80337474,0.0065859,LEO
39439,FIRST-MOVE,2013,96.79,-1.0,+,97.67,Active,0,LEO,Russia,Germany,Unknown,Unknown,Unknown,1 39439U 13066Z   23073.66044618  .00014578  00000+0  15540-2 0  9995,2 39439  97.6708  42.0935 0056444 228.7237 130.9112 14.87788951502163,14.87788951,0.0056444,LEO
39440,CUBEBUG-2 (LO-74),2013,97.39,2.0,+,97.76,Active,1,LEO,Russia,Argentina,Civil,Technology Development,Dnepr,1 39440U 13066AA  23074.13442705  .00008675  00000+0  11350-2 0  9995,2 39440  97.7621  26.0628 0075699 334.4696  25.2784 14.78633401501459,14.78633401,0.0075699,LEO
